[{"OBJECT_NAME":"ONEWEB-0338","OBJECT_ID":"2021-083U","EPOCH":"2026-02-12T04:39:51.292224","MEAN_MOTION":13.20773269,"ECCENTRICITY":0.00013552,"INCLINATION":87.9205,"RA_OF_ASC_NODE":299.4083,"ARG_OF_PERICENTER":85.2568,"MEAN_ANOMALY":274.872,"EPHEMERIS_TYPE":0,"CLASSIFICATION_TYPE":"U","NORAD_CAT_ID":49204,"ELEMENT_SET_NO":999,"REV_AT_EPOCH":22031,"BSTAR":0.00020489442,"MEAN_MOTION_DOT":9.6e-7,"MEAN_MOTION_DDOT":0},{"OBJECT_NAME":"ONEWEB-0339","OBJECT_ID":"2021-083V","EPOCH":"2026-02-12T06:28:35.931648","MEAN_MOTION":13.13471104,"ECCENTRICITY":0.00016723,"INCLINATION":87.9036,"RA_OF_ASC_NODE":345.061,"ARG_OF_PERICENTER":88.3674,"MEAN_ANOMALY":271.7647,"EPHEMERIS_TYPE":0,"CLASSIFICATION_TYPE":"U","NORAD_CAT_ID":49205,"ELEMENT_SET_NO":999,"REV_AT_EPOCH":21449,"BSTAR":0.00050466382,"MEAN_MOTION_DOT":1.97e-6,"MEAN_MOTION_DDOT":0},{"OBJECT_NAME":"ONEWEB-0340","OBJECT_ID":"2021-083W","EPOCH":"2026-02-11T22:30:34.811424","MEAN_MOTION":13.18682757,"ECCENTRICITY":0.0001851,"INCLINATION":87.9232,"RA_OF_ASC_NODE":0.3172,"ARG_OF_PERICENTER":79.9392,"MEAN_ANOMALY":280.1949,"EPHEMERIS_TYPE":0,"CLASSIFICATION_TYPE":"U","NORAD_CAT_ID":49206,"ELEMENT_SET_NO":999,"REV_AT_EPOCH":21346,"BSTAR":-0.0002762,"MEAN_MOTION_DOT":-9.6e-7,"MEAN_MOTION_DDOT":0},{"OBJECT_NAME":"ONEWEB-0341","OBJECT_ID":"2021-083X","EPOCH":"2026-02-11T22:40:05.467008","MEAN_MOTION":13.18685959,"ECCENTRICITY":0.000224,"INCLINATION":87.9229,"RA_OF_ASC_NODE":0.3267,"ARG_OF_PERICENTER":88.7422,"MEAN_ANOMALY":271.3967,"EPHEMERIS_TYPE":0,"CLASSIFICATION_TYPE":"U","NORAD_CAT_ID":49207,"ELEMENT_SET_NO":999,"REV_AT_EPOCH":21348,"BSTAR":-0.00044527,"MEAN_MOTION_DOT":-1.63e-6,"MEAN_MOTION_DDOT":0},{"OBJECT_NAME":"ONEWEB-0342","OBJECT_ID":"2021-083Y","EPOCH":"2026-02-12T04:48:55.183680","MEAN_MOTION":13.2077048,"ECCENTRICITY":0.00015433,"INCLINATION":87.9216,"RA_OF_ASC_NODE":299.3834,"ARG_OF_PERICENTER":84.4562,"MEAN_ANOMALY":275.6747,"EPHEMERIS_TYPE":0,"CLASSIFICATION_TYPE":"U","NORAD_CAT_ID":49208,"ELEMENT_SET_NO":999,"REV_AT_EPOCH":22028,"BSTAR":0.00024734348,"MEAN_MOTION_DOT":1.14e-6,"MEAN_MOTION_DDOT":0},{"OBJECT_NAME":"ONEWEB-0343","OBJECT_ID":"2021-083Z","EPOCH":"2026-02-11T21:02:41.427168","MEAN_MOTION":13.18684622,"ECCENTRICITY":0.0002014,"INCLINATION":87.9231,"RA_OF_ASC_NODE":0.3338,"ARG_OF_PERICENTER":93.4501,"MEAN_ANOMALY":266.6861,"EPHEMERIS_TYPE":0,"CLASSIFICATION_TYPE":"U","NORAD_CAT_ID":49209,"ELEMENT_SET_NO":999,"REV_AT_EPOCH":21352,"BSTAR":9.877e-5,"MEAN_MOTION_DOT":5.2e-7,"MEAN_MOTION_DDOT":0},{"OBJECT_NAME":"ONEWEB-0344","OBJECT_ID":"2021-083AA","EPOCH":"2026-02-11T21:12:47.199168","MEAN_MOTION":13.13471491,"ECCENTRICITY":0.000214,"INCLINATION":87.9032,"RA_OF_ASC_NODE":345.1628,"ARG_OF_PERICENTER":86.4391,"MEAN_ANOMALY":273.6983,"EPHEMERIS_TYPE":0,"CLASSIFICATION_TYPE":"U","NORAD_CAT_ID":49210,"ELEMENT_SET_NO":999,"REV_AT_EPOCH":21444,"BSTAR":0.00011979,"MEAN_MOTION_DOT":5.6e-7,"MEAN_MOTION_DDOT":0},{"OBJECT_NAME":"ONEWEB-0345","OBJECT_ID":"2021-083AB","EPOCH":"2026-02-11T21:00:36.415008","MEAN_MOTION":13.1347043,"ECCENTRICITY":0.0002124,"INCLINATION":87.9032,"RA_OF_ASC_NODE":345.1306,"ARG_OF_PERICENTER":85.7005,"MEAN_ANOMALY":274.4367,"EPHEMERIS_TYPE":0,"CLASSIFICATION_TYPE":"U","NORAD_CAT_ID":49211,"ELEMENT_SET_NO":999,"REV_AT_EPOCH":21445,"BSTAR":-0.00048972,"MEAN_MOTION_DOT":-1.66e-6,"MEAN_MOTION_DDOT":0},{"OBJECT_NAME":"ONEWEB-0346","OBJECT_ID":"2021-083AC","EPOCH":"2026-02-11T20:57:57.011328","MEAN_MOTION":13.18686557,"ECCENTRICITY":0.0002334,"INCLINATION":87.922,"RA_OF_ASC_NODE":0.3447,"ARG_OF_PERICENTER":61.6982,"MEAN_ANOMALY":298.4385,"EPHEMERIS_TYPE":0,"CLASSIFICATION_TYPE":"U","NORAD_CAT_ID":49212,"ELEMENT_SET_NO":999,"REV_AT_EPOCH":21346,"BSTAR":0.000146,"MEAN_MOTION_DOT":7.0e-7,"MEAN_MOTION_DDOT":0},{"OBJECT_NAME":"ONEWEB-0348","OBJECT_ID":"2021-083AD","EPOCH":"2026-02-12T04:35:17.031840","MEAN_MOTION":13.20772044,"ECCENTRICITY":0.00021548,"INCLINATION":87.9212,"RA_OF_ASC_NODE":299.388,"ARG_OF_PERICENTER":74.2823,"MEAN_ANOMALY":285.8548,"EPHEMERIS_TYPE":0,"CLASSIFICATION_TYPE":"U","NORAD_CAT_ID":49213,"ELEMENT_SET_NO":999,"REV_AT_EPOCH":22031,"BSTAR":-0.00044114285,"MEAN_MOTION_DOT":-1.66e-6,"MEAN_MOTION_DDOT":0},{"OBJECT_NAME":"ONEWEB-0350","OBJECT_ID":"2021-083AE","EPOCH":"2026-02-12T06:22:28.217568","MEAN_MOTION":13.1347022,"ECCENTRICITY":0.00021778,"INCLINATION":87.903,"RA_OF_ASC_NODE":345.0526,"ARG_OF_PERICENTER":83.0378,"MEAN_ANOMALY":277.0998,"EPHEMERIS_TYPE":0,"CLASSIFICATION_TYPE":"U","NORAD_CAT_ID":49214,"ELEMENT_SET_NO":999,"REV_AT_EPOCH":21453,"BSTAR":-0.00052963178,"MEAN_MOTION_DOT":-1.81e-6,"MEAN_MOTION_DDOT":0},{"OBJECT_NAME":"ONEWEB-0351","OBJECT_ID":"2021-083AF","EPOCH":"2026-02-12T02:36:55.374336","MEAN_MOTION":13.20772827,"ECCENTRICITY":0.00014775,"INCLINATION":87.9211,"RA_OF_ASC_NODE":299.4025,"ARG_OF_PERICENTER":110.3427,"MEAN_ANOMALY":249.7865,"EPHEMERIS_TYPE":0,"CLASSIFICATION_TYPE":"U","NORAD_CAT_ID":49215,"ELEMENT_SET_NO":999,"REV_AT_EPOCH":22026,"BSTAR":0.00016604509,"MEAN_MOTION_DOT":8.0e-7,"MEAN_MOTION_DDOT":0},{"OBJECT_NAME":"ONEWEB-0352","OBJECT_ID":"2021-083AG","EPOCH":"2026-02-12T05:54:27.411840","MEAN_MOTION":13.13470843,"ECCENTRICITY":0.00016826,"INCLINATION":87.903,"RA_OF_ASC_NODE":345.0743,"ARG_OF_PERICENTER":90.6508,"MEAN_ANOMALY":269.4814,"EPHEMERIS_TYPE":0,"CLASSIFICATION_TYPE":"U","NORAD_CAT_ID":49216,"ELEMENT_SET_NO":999,"REV_AT_EPOCH":21462,"BSTAR":-0.00067891874,"MEAN_MOTION_DOT":-2.35e-6,"MEAN_MOTION_DDOT":0},{"OBJECT_NAME":"ONEWEB-0354","OBJECT_ID":"2021-083AH","EPOCH":"2026-02-12T05:02:33.413280","MEAN_MOTION":13.20770642,"ECCENTRICITY":0.00019428,"INCLINATION":87.9211,"RA_OF_ASC_NODE":299.3818,"ARG_OF_PERICENTER":79.45,"MEAN_ANOMALY":280.6852,"EPHEMERIS_TYPE":0,"CLASSIFICATION_TYPE":"U","NORAD_CAT_ID":49217,"ELEMENT_SET_NO":999,"REV_AT_EPOCH":22031,"BSTAR":0.00013018304,"MEAN_MOTION_DOT":6.6e-7,"MEAN_MOTION_DDOT":0},{"OBJECT_NAME":"ONEWEB-0355","OBJECT_ID":"2021-083AJ","EPOCH":"2026-02-12T04:46:24.252384","MEAN_MOTION":13.13470923,"ECCENTRICITY":0.0001887,"INCLINATION":87.9022,"RA_OF_ASC_NODE":345.0951,"ARG_OF_PERICENTER":87.5575,"MEAN_ANOMALY":272.577,"EPHEMERIS_TYPE":0,"CLASSIFICATION_TYPE":"U","NORAD_CAT_ID":49218,"ELEMENT_SET_NO":999,"REV_AT_EPOCH":21449,"BSTAR":0.00045356003,"MEAN_MOTION_DOT":1.78e-6,"MEAN_MOTION_DDOT":0},{"OBJECT_NAME":"ONEWEB-0357","OBJECT_ID":"2021-083AK","EPOCH":"2026-02-12T04:58:00.662304","MEAN_MOTION":13.20770835,"ECCENTRICITY":0.00015905,"INCLINATION":87.9212,"RA_OF_ASC_NODE":299.3775,"ARG_OF_PERICENTER":83.6679,"MEAN_ANOMALY":276.4635,"EPHEMERIS_TYPE":0,"CLASSIFICATION_TYPE":"U","NORAD_CAT_ID":49219,"ELEMENT_SET_NO":999,"REV_AT_EPOCH":22031,"BSTAR":0.00021091706,"MEAN_MOTION_DOT":9.9e-7,"MEAN_MOTION_DDOT":0},{"OBJECT_NAME":"ONEWEB-0332","OBJECT_ID":"2021-090A","EPOCH":"2026-02-12T05:35:49.805376","MEAN_MOTION":13.14505141,"ECCENTRICITY":0.00014364,"INCLINATION":87.9016,"RA_OF_ASC_NODE":314.6271,"ARG_OF_PERICENTER":77.5303,"MEAN_ANOMALY":282.5987,"EPHEMERIS_TYPE":0,"CLASSIFICATION_TYPE":"U","NORAD_CAT_ID":49279,"ELEMENT_SET_NO":999,"REV_AT_EPOCH":21116,"BSTAR":-0.000475386,"MEAN_MOTION_DOT":-1.63e-6,"MEAN_MOTION_DDOT":0},{"OBJECT_NAME":"ONEWEB-0347","OBJECT_ID":"2021-090B","EPOCH":"2026-02-12T04:44:22.519104","MEAN_MOTION":13.20771318,"ECCENTRICITY":0.00013608,"INCLINATION":87.9215,"RA_OF_ASC_NODE":299.3885,"ARG_OF_PERICENTER":75.3588,"MEAN_ANOMALY":284.7696,"EPHEMERIS_TYPE":0,"CLASSIFICATION_TYPE":"U","NORAD_CAT_ID":49280,"ELEMENT_SET_NO":999,"REV_AT_EPOCH":21454,"BSTAR":0.00026349335,"MEAN_MOTION_DOT":1.2e-6,"MEAN_MOTION_DDOT":0},{"OBJECT_NAME":"ONEWEB-0349","OBJECT_ID":"2021-090C","EPOCH":"2026-02-12T05:29:50.540352","MEAN_MOTION":13.20772377,"ECCENTRICITY":0.00016682,"INCLINATION":87.9211,"RA_OF_ASC_NODE":299.3824,"ARG_OF_PERICENTER":77.9204,"MEAN_ANOMALY":282.2116,"EPHEMERIS_TYPE":0,"CLASSIFICATION_TYPE":"U","NORAD_CAT_ID":49281,"ELEMENT_SET_NO":999,"REV_AT_EPOCH":21333,"BSTAR":-0.00084658873,"MEAN_MOTION_DOT":-3.31e-6,"MEAN_MOTION_DDOT":0},{"OBJECT_NAME":"ONEWEB-0353","OBJECT_ID":"2021-090D","EPOCH":"2026-02-12T05:24:25.632288","MEAN_MOTION":13.14503868,"ECCENTRICITY":0.00014333,"INCLINATION":87.9026,"RA_OF_ASC_NODE":314.6207,"ARG_OF_PERICENTER":72.4813,"MEAN_ANOMALY":287.6473,"EPHEMERIS_TYPE":0,"CLASSIFICATION_TYPE":"U","NORAD_CAT_ID":49282,"ELEMENT_SET_NO":999,"REV_AT_EPOCH":21116,"BSTAR":-0.00040068276,"MEAN_MOTION_DOT":-1.36e-6,"MEAN_MOTION_DDOT":0},{"OBJECT_NAME":"ONEWEB-0356","OBJECT_ID":"2021-090E","EPOCH":"2026-02-12T05:27:33.448608","MEAN_MOTION":13.20771267,"ECCENTRICITY":0.00018114,"INCLINATION":87.9211,"RA_OF_ASC_NODE":299.3758,"ARG_OF_PERICENTER":50.1094,"MEAN_ANOMALY":310.0199,"EPHEMERIS_TYPE":0,"CLASSIFICATION_TYPE":"U","NORAD_CAT_ID":49283,"ELEMENT_SET_NO":999,"REV_AT_EPOCH":21333,"BSTAR":-7.6032205e-5,"MEAN_MOTION_DOT":-1.8e-7,"MEAN_MOTION_DDOT":0},{"OBJECT_NAME":"ONEWEB-0358","OBJECT_ID":"2021-090F","EPOCH":"2026-02-12T04:21:39.164256","MEAN_MOTION":13.20770166,"ECCENTRICITY":0.00017766,"INCLINATION":87.9212,"RA_OF_ASC_NODE":299.3864,"ARG_OF_PERICENTER":72.7704,"MEAN_ANOMALY":287.3623,"EPHEMERIS_TYPE":0,"CLASSIFICATION_TYPE":"U","NORAD_CAT_ID":49284,"ELEMENT_SET_NO":999,"REV_AT_EPOCH":21405,"BSTAR":-9.361724e-5,"MEAN_MOTION_DOT":-2.5e-7,"MEAN_MOTION_DDOT":0},{"OBJECT_NAME":"ONEWEB-0359","OBJECT_ID":"2021-090G","EPOCH":"2026-02-12T04:17:07.964160","MEAN_MOTION":13.2077081,"ECCENTRICITY":0.00018051,"INCLINATION":87.9214,"RA_OF_ASC_NODE":299.3847,"ARG_OF_PERICENTER":71.1186,"MEAN_ANOMALY":289.0143,"EPHEMERIS_TYPE":0,"CLASSIFICATION_TYPE":"U","NORAD_CAT_ID":49285,"ELEMENT_SET_NO":999,"REV_AT_EPOCH":21403,"BSTAR":0.0015878221,"MEAN_MOTION_DOT":6.59e-6,"MEAN_MOTION_DDOT":0}]
